ONEWEB-0113             
1 48050U 21025J   22053.53872949 -.00000057  00000+0 -19020-3 0  9994
2 48050  87.8936 273.2557 0001430  92.9191 267.2102 13.13471552 46743
ONEWEB-0112             
1 48051U 21025K   22053.52752671  .00000184  00000+0  46928-3 0  9999
2 48051  87.8826 273.1976 0001510  89.4812 270.6490 13.13471601 46750
ONEWEB-0156             
1 48052U 21025L   22053.53648503 -.00000034  00000+0 -12754-3 0  9995
2 48052  87.8941 273.2278 0001518  87.0294 273.1009 13.13467317 46732
ONEWEB-0161             
1 48053U 21025M   22053.66195563  .00000225  00000+0  58189-3 0  9995
2 48053  87.8875 273.1966 0001712  90.3316 269.8009 13.13472410 46697
ONEWEB-0158             
1 48054U 21025N   22053.54994588 -.00000251  00000+0 -72115-3 0  9993
2 48054  87.8932 273.2485 0001264  95.8889 264.2385 13.13468875 46793
ONEWEB-0157             
1 48055U 21025P   22053.64852678 -.00000133  00000+0 -39858-3 0  9994
2 48055  87.8907 273.2122 0001921  79.7307 280.4039 13.13470922 46758
ONEWEB-0162             
1 48056U 21025Q   22053.53426059  .00000029  00000+0  44517-4 0  9994
2 48056  87.8852 273.1899 0001515  80.7866 279.3435 13.13467917 46701
ONEWEB-0155             
1 48057U 21025R   22053.86136499 -.00000365  00000+0 -10339-2 0  9995
2 48057  87.8890 273.1566 0001651  93.6930 266.4388 13.13469799 46895
ONEWEB-0149             
1 48058U 21025S   22053.57682211  .00000003  00000+0 -27836-4 0  9992
2 48058  87.8929 273.2095 0001511  63.3503 296.7780 13.13468611 46650
ONEWEB-0148             
1 48059U 21025T   22053.54097827 -.00000125  00000+0 -37649-3 0  9991
2 48059  87.8899 273.2111 0002084  61.1828 298.9510 13.13470307 46771
ONEWEB-0160             
1 48060U 21025U   22053.86358539 -.00000389  00000+0 -11008-2 0  9990
2 48060  87.8880 273.1568 0000776 144.8218 215.2962 13.13468493 46761
ONEWEB-0163             
1 48061U 21025V   22053.54321561 -.00000169  00000+0 -49816-3 0  9996
2 48061  87.8947 273.2680 0002203  81.4996 278.6383 13.13470213 46840
ONEWEB-0159             
1 48062U 21025W   22053.68437168  .00000212  00000+0  54473-3 0  9995
2 48062  87.8924 273.1463 0002073  74.5354 285.6004 13.13469241 46780
ONEWEB-0164             
1 48063U 21025X   22053.66643423  .00000314  00000+0  82431-3 0  9995
2 48063  87.8954 273.2516 0001641  99.8642 260.2672 13.13471680 46773
ONEWEB-0167             
1 48064U 21025Y   22053.54545785 -.00000182  00000+0 -53266-3 0  9994
2 48064  87.8910 273.2302 0001936  80.0625 280.0722 13.13468236 46734
ONEWEB-0166             
1 48065U 21025Z   22053.56562141 -.00000269  00000+0 -77125-3 0  9998
2 48065  87.8821 273.1959 0001802  85.5699 274.5636 13.13469660 46819
ONEWEB-0151             
1 48066U 21025AA  22053.56785394 -.00000192  00000+0 -56096-3 0  9995
2 48066  87.8921 273.2293 0001747 102.1626 257.9699 13.13471164 46756
ONEWEB-0170             
1 48067U 21025AB  22053.57458022 -.00000022  00000+0 -93948-4 0  9992
2 48067  87.8952 273.2635 0001799 125.1254 235.0044 13.13470878 46718
ONEWEB-0168             
1 48068U 21025AC  22053.63731322 -.00000316  00000+0 -89973-3 0  9995
2 48068  87.8934 273.2324 0001737  85.3955 274.7372 13.13468918 46739
ONEWEB-0173             
1 48069U 21025AD  22053.85912798 -.00000317  00000+0 -90413-3 0  9990
2 48069  87.8936 273.1955 0002172  90.0876 270.0502 13.13468846 47005
ONEWEB-0171             
1 48070U 21025AE  22053.66419972  .00000250  00000+0  64862-3 0  9990
2 48070  87.8865 273.1635 0001687  79.0927 281.0392 13.13468767 46793
ONEWEB-0172             
1 48071U 21025AF  22053.56744274 -.00000183  00000+0 -53576-3 0  9993
2 48071  87.8911 273.3134 0001866  95.3003 264.8339 13.13472280 47670
ONEWEB-0174             
1 48072U 21025AG  22053.55218072 -.00000258  00000+0 -74247-3 0  9996
2 48072  87.8880 273.2073 0001948  58.3779 301.7540 13.13470004 46998
ONEWEB-0175             
1 48073U 21025AH  22053.57905086  .00000115  00000+0  27927-3 0  9990
2 48073  87.8838 273.2299 0001652 110.9094 249.2212 13.13472104 46657
ONEWEB-0177             
1 48074U 21025AJ  22053.66869218  .00000347  00000+0  91536-3 0  9991
2 48074  87.8946 273.2339 0002415  83.9888 276.1516 13.13470418 46855
ONEWEB-0178             
1 48075U 21025AK  22053.53312662  .00000086  00000+0  19960-3 0  9995
2 48075  87.8877 273.2020 0001933  85.0227 275.1123 13.13467327 46881
ONEWEB-0108             
1 48076U 21025AL  22053.57009662 -.00000133  00000+0 -39857-3 0  9995
2 48076  87.8918 273.2349 0001215  73.3935 286.7328 13.13469114 46815
ONEWEB-0169             
1 48077U 21025AM  22053.60146717  .00000287  00000+0  75040-3 0  9995
2 48077  87.8949 273.2587 0001453  75.1794 284.9496 13.13471717 45470
ONEWEB-0176             
1 48210U 21031A   22053.54007474 -.00000116  00000+0 -34691-3 0  9990
2 48210  87.9030 242.8661 0001816  91.6310 268.5027 13.14501559 41312
ONEWEB-0184             
1 48211U 21031B   22053.81916371  .00000254  00000+0  65179-3 0  9992
2 48211  87.8922 242.7904 0002431 128.8015 231.3332 13.14501125 41327
ONEWEB-0179             
1 48212U 21031C   22053.78742887 -.00000454  00000+0 -12596-2 0  9996
2 48212  87.8926 242.7900 0001983  87.7242 272.4115 13.14502849 41367
ONEWEB-0180             
1 48213U 21031D   22053.82128223  .00000223  00000+0  56715-3 0  9998
2 48213  87.8919 242.7896 0001815  86.2934 273.8403 13.14502998 41258
ONEWEB-0218             
1 48214U 21031E   22053.53794022 -.00000105  00000+0 -31717-3 0  9999
2 48214  87.8910 242.8223 0002829 117.1333 243.0086 13.14505610 41371
ONEWEB-0209             
1 48215U 21031F   22053.52738130  .00000078  00000+0  17557-3 0  9990
2 48215  87.8938 242.8543 0001790  90.5771 269.5563 13.14501219 41377
ONEWEB-0198             
1 48216U 21031G   22053.58870521  .00000396  00000+0  10325-2 0  9996
2 48216  87.8985 242.8561 0002406  99.4030 260.7371 13.14504097 41491
ONEWEB-0189             
1 48217U 21031H   22053.52525381  .00000071  00000+0  15632-3 0  9999
2 48217  87.8919 242.8329 0002382  98.4254 261.7146 13.14499771 41225
ONEWEB-0196             
1 48218U 21031J   22053.58022516  .00000180  00000+0  45104-3 0  9996
2 48218  87.8937 242.8251 0001691  99.2148 260.9173 13.14499964 41239
ONEWEB-0183             
1 48219U 21031K   22053.55275874 -.00000173  00000+0 -50210-3 0  9999
2 48219  87.8942 242.8406 0001715  86.8076 273.3250 13.14502022 41321
ONEWEB-0185             
1 48220U 21031L   22053.58234749  .00000200  00000+0  50505-3 0  9996
2 48220  87.8929 242.8382 0001821  85.9873 274.1465 13.14500561 41259
ONEWEB-0187             
1 48221U 21031M   22053.55697615 -.00000145  00000+0 -42554-3 0  9994
2 48221  87.8940 242.8464 0001813  87.1020 273.0317 13.14501406 41267
ONEWEB-0192             
1 48222U 21031N   22053.52947938  .00000034  00000+0  57331-4 0  9993
2 48222  87.8926 242.8261 0001816 101.2526 258.8808 13.14500628 41170
ONEWEB-0219             
1 48223U 21031P   22053.58659156  .00000212  00000+0  53703-3 0  9998
2 48223  87.8920 242.8104 0001739  90.4041 269.7288 13.14504580 41383
ONEWEB-0202             
1 48224U 21031Q   22053.56543062 -.00000046  00000+0 -15878-3 0  9993
2 48224  87.8941 242.8454 0002840 108.4814 251.6625 13.14500928 41362
ONEWEB-0204             
1 48225U 21031R   22053.55063310 -.00000172  00000+0 -49799-3 0  9995
2 48225  87.8958 242.8439 0000917  81.9151 278.2083 13.14500889 41253
ONEWEB-0205             
1 48226U 21031S   22053.57600470  .00000190  00000+0  47703-3 0  9993
2 48226  87.8938 242.8290 0002177 129.8761 230.2560 13.14502234 41272
ONEWEB-0206             
1 48227U 21031T   22053.54850428 -.00000492  00000+0 -13623-2 0  9991
2 48227  87.8909 242.8200 0001842  83.0576 277.0763 13.14502357 41220
ONEWEB-0182             
1 48228U 21031U   22053.54217768 -.00000116  00000+0 -34693-3 0  9990
2 48228  87.8956 242.8611 0001861  85.8370 274.2972 13.14501169 41436
ONEWEB-0186             
1 48229U 21031V   22053.55486101 -.00000166  00000+0 -48118-3 0  9993
2 48229  87.8925 242.8266 0002011  92.7895 267.3465 13.14501382 41387
ONEWEB-0181             
1 48230U 21031W   22053.53161654  .00000010  00000+0 -69360-5 0  9997
2 48230  87.9029 242.8429 0001642  95.1011 265.0306 13.14501665 41239
ONEWEB-0188             
1 48231U 21031X   22053.80014007  .00000139  00000+0  33999-3 0  9995
2 48231  87.8946 242.8093 0001792  87.7823 272.3512 13.14501622 41174
ONEWEB-0220             
1 48232U 21031Y   22053.53370847 -.00000025  00000+0 -10087-3 0  9992
2 48232  87.8920 242.8202 0002166  88.7335 271.4042 13.14500174 41409
ONEWEB-0165             
1 48233U 21031Z   22053.56331830 -.00000065  00000+0 -21106-3 0  9993
2 48233  87.8939 242.8515 0002017  90.1140 270.0221 13.14501038 41362
ONEWEB-0199             
1 48234U 21031AA  22053.54641538 -.00000239  00000+0 -67891-3 0  9995
2 48234  87.8930 242.8497 0001860  93.1540 266.9803 13.14501710 41261
ONEWEB-0203             
1 48235U 21031AB  22053.53582625 -.00000062  00000+0 -20300-3 0  9994
2 48235  87.8949 242.8122 0001657 114.8599 245.2704 13.14505727 41279
ONEWEB-0197             
1 48236U 21031AC  22053.52314936  .00000114  00000+0  27366-3 0  9997
2 48236  87.8936 242.8500 0001779  94.7122 265.4211 13.14501604 41186
ONEWEB-0194             
1 48237U 21031AD  22053.56754327 -.00000008  00000+0 -56200-4 0  9998
2 48237  87.8928 242.8412 0001298 112.7057 247.4210 13.14501069 41368
ONEWEB-0193             
1 48238U 21031AE  22053.58447385  .00000229  00000+0  58208-3 0  9996
2 48238  87.8936 242.8346 0001761 102.2242 257.9085 13.14504800 41316
ONEWEB-0191             
1 48239U 21031AF  22053.59504869  .00000229  00000+0  58396-3 0  9997
2 48239  87.8923 242.8401 0001602 103.6091 256.5217 13.14501967 41173
ONEWEB-0195             
1 48240U 21031AG  22053.80223208  .00000214  00000+0  54319-3 0  9993
2 48240  87.8927 242.7829 0002338  98.9056 261.2338 13.14505871 41182
